{
  "type": "FeatureCollection",
  "features": [
    {
      "type": "Feature",
      "properties": {
        "qc_id": 0,
        "fid": 1,
        "name": "Кепка Олега Попова",
        "original_name": "Цирк",
        "explainer": "Кепкой Олега Попова называют здание местного цирка. Это распространенный проект здания имеет ассоциацию с кепкой известного клоуна во времена СССР.",
        "Тип названия": "Визуальная ассоциация",
        "auxiliary_storage_labeling_positionx": null,
        "auxiliary_storage_labeling_positiony": null,
        "auxiliary_storage_callouts_originx": null,
        "auxiliary_storage_callouts_originy": null,
        "auxiliary_storage_callouts_destinationx": null,
        "auxiliary_storage_callouts_destinationy": null,
        "photos": [
          {
            "src": "/images/descriptions/image_28_1.jpeg",
            "alt": "Здание Пермского Цирка",
            "caption": "Здание Пермского Цирка"
          },
          {
            "src": "/images/descriptions/image_28_2.jpeg",
            "alt": "Советский клоун Олег Попов",
            "caption": "Советский клоун Олег Попов"
          }
        ],
        "city": "Пермь"
      },
      "geometry": {
        "type": "MultiPoint",
        "coordinates": [
          [
            56.27616727346376,
            58.02049571467915
          ]
        ]
      },
      "id": 214
    },
    {
      "type": "Feature",
      "properties": {
        "qc_id": 1,
        "fid": 2,
        "name": "Драмсарай",
        "original_name": "Театр-Театр",
        "explainer": "Так называют здание нынешнего Театра-Театра, который раньше назывался просто Драматический. Драмсараем здание стало из-за визуальной ассоциации.",
        "Тип названия": "Визуальная ассоциация",
        "auxiliary_storage_labeling_positionx": 451440.7124537663,
        "auxiliary_storage_labeling_positiony": 6430615.671782063,
        "auxiliary_storage_callouts_originx": null,
        "auxiliary_storage_callouts_originy": null,
        "auxiliary_storage_callouts_destinationx": null,
        "auxiliary_storage_callouts_destinationy": null,
        "photos": [
          {
            "src": "/images/descriptions/image_29_1.png",
            "alt": "Фото Пермского драматического театра",
            "caption": "Фото Пермского драматического театра"
          }
        ],
        "city": "Пермь"
      },
      "geometry": {
        "type": "MultiPoint",
        "coordinates": [
          [
            56.216102765789834,
            58.0081050494206
          ]
        ]
      },
      "id": 215
    },
    {
      "type": "Feature",
      "properties": {
        "qc_id": 2,
        "fid": 3,
        "name": "Пермская ярмарка",
        "original_name": "Бульвар Гагарина 65А",
        "explainer": "Пермской ярмаркой называют здание в Мотовилихинском районе, где ранее находилась Пермская ярмарка.",
        "Тип названия": "Историческая ассоциация",
        "auxiliary_storage_labeling_positionx": 458767.0759081526,
        "auxiliary_storage_labeling_positiony": 6428406.908264409,
        "auxiliary_storage_callouts_originx": null,
        "auxiliary_storage_callouts_originy": null,
        "auxiliary_storage_callouts_destinationx": null,
        "auxiliary_storage_callouts_destinationy": null,
        "city": "Пермь"
      },
      "geometry": {
        "type": "MultiPoint",
        "coordinates": [
          [
            56.286618318852234,
            58.005434498026844
          ]
        ]
      },
      "id": 216
    },
    {
      "type": "Feature",
      "properties": {
        "qc_id": 3,
        "fid": 4,
        "name": "Китайская стена",
        "original_name": "ул. Власова, д 17",
        "explainer": "Китайская стена – распространенное название длинных домов по всей России. В Перми точно выделяют Китайскую стену на Власова.",
        "Тип названия": "Визуальная ассоциация",
        "auxiliary_storage_labeling_positionx": 443326.7701941675,
        "auxiliary_storage_labeling_positiony": 6425328.876587201,
        "auxiliary_storage_callouts_originx": null,
        "auxiliary_storage_callouts_originy": null,
        "auxiliary_storage_callouts_destinationx": null,
        "auxiliary_storage_callouts_destinationy": null,
        "photos": [
          {
            "src": "/images/descriptions/image_29_2.jpeg",
            "alt": "Китайская стена"
          }
        ],
        "city": "Пермь"
      },
      "geometry": {
        "type": "MultiPoint",
        "coordinates": [
          [
            56.165061269154,
            57.96546928230548
          ]
        ]
      },
      "id": 217
    },
    {
      "type": "Feature",
      "properties": {
        "qc_id": 4,
        "fid": 5,
        "name": "Стометровка",
        "original_name": "ул. Ленина 72А",
        "explainer": "Здание бывшего магазина «Стометровка». Он был назван так из-за того, что длина здания, в котором он располагался — 100 метров.",
        "Тип названия": "Историческая ассоциация",
        "auxiliary_storage_labeling_positionx": 452307.6551832446,
        "auxiliary_storage_labeling_positiony": 6430822.235178164,
        "auxiliary_storage_callouts_originx": null,
        "auxiliary_storage_callouts_originy": null,
        "auxiliary_storage_callouts_destinationx": null,
        "auxiliary_storage_callouts_destinationy": null,
        "photos": [
          {
            "src": "/images/descriptions/image_30_1.jpeg",
            "alt": "Стометровка"
          }
        ],
        "city": "Пермь"
      },
      "geometry": {
        "type": "MultiPoint",
        "coordinates": [
          [
            56.221507078736344,
            58.00795028434051
          ]
        ]
      },
      "id": 218
    },
    {
      "type": "Feature",
      "properties": {
        "qc_id": 5,
        "fid": 6,
        "name": "У Славика",
        "original_name": "Памятник Н. Слаянову",
        "explainer": "Местное название. Памятник Славянову на Площади Дружбы Лебедь, рак и щука Так называют памятник героям фронта и тыла. Другие названия: автостопщики, памятник толкиенистам, на троих.",
        "Тип названия": "Ассоциация с официальным названием",
        "auxiliary_storage_labeling_positionx": 456781.2756743744,
        "auxiliary_storage_labeling_positiony": 6431879.8977314,
        "auxiliary_storage_callouts_originx": null,
        "auxiliary_storage_callouts_originy": null,
        "auxiliary_storage_callouts_destinationx": null,
        "auxiliary_storage_callouts_destinationy": null,
        "city": "Пермь"
      },
      "geometry": {
        "type": "MultiPoint",
        "coordinates": [
          [
            56.282161974423076,
            58.01460981490973
          ]
        ]
      },
      "id": 219
    },
    {
      "type": "Feature",
      "properties": {
        "qc_id": 6,
        "fid": 7,
        "name": "Лебедь, рак и щука",
        "original_name": "Героям фронта и тыла",
        "explainer": null,
        "Тип названия": "Визуальная ассоциация",
        "auxiliary_storage_labeling_positionx": null,
        "auxiliary_storage_labeling_positiony": null,
        "auxiliary_storage_callouts_originx": null,
        "auxiliary_storage_callouts_originy": null,
        "auxiliary_storage_callouts_destinationx": null,
        "auxiliary_storage_callouts_destinationy": null,
        "photo": "/images/features/lebed_rak_i_shchuka.png",
        "photos": [
          {
            "src": "/images/descriptions/image_31_2.jpeg",
            "alt": "Лебедь, рак и щука"
          }
        ],
        "city": "Пермь"
      },
      "geometry": {
        "type": "MultiPoint",
        "coordinates": [
          [
            56.223526519461444,
            58.009264807027236
          ]
        ]
      },
      "id": 220
    },
    {
      "type": "Feature",
      "properties": {
        "qc_id": 7,
        "fid": 8,
        "name": "Дом с лицами",
        "original_name": "Дом Грибушина",
        "explainer": "Домом с лицами называют дом Грибушина с внешним орнаментов в виде лиц. Есть вероятность, что именно этот дом был описан в романе Доктор Живаго.",
        "Тип названия": "Визуальная ассоциация",
        "auxiliary_storage_labeling_positionx": 456017.4845326658,
        "auxiliary_storage_labeling_positiony": 6430090.978867732,
        "auxiliary_storage_callouts_originx": null,
        "auxiliary_storage_callouts_originy": null,
        "auxiliary_storage_callouts_destinationx": null,
        "auxiliary_storage_callouts_destinationy": null,
        "city": "Пермь"
      },
      "geometry": {
        "type": "MultiPoint",
        "coordinates": [
          [
            56.253664811813984,
            58.015825217480945
          ]
        ]
      },
      "id": 221
    },
    {
      "type": "Feature",
      "properties": {
        "qc_id": 8,
        "fid": 9,
        "name": "Кырлы-Мырлы",
        "original_name": "Площадь Карла Маркса",
        "explainer": "",
        "Тип названия": "Ассоциация с официальным названием",
        "auxiliary_storage_labeling_positionx": null,
        "auxiliary_storage_labeling_positiony": null,
        "auxiliary_storage_callouts_originx": null,
        "auxiliary_storage_callouts_originy": null,
        "auxiliary_storage_callouts_destinationx": null,
        "auxiliary_storage_callouts_destinationy": null,
        "photos": [
          {
            "src": "/images/descriptions/image_32_1.jpeg",
            "alt": "Кырлы-Мырлы",
            "caption": "Кырлы-Мырлы"
          }
        ],
        "city": "Пермь"
      },
      "geometry": {
        "type": "MultiPoint",
        "coordinates": [
          [
            56.262155548387305,
            57.996997495873806
          ]
        ]
      },
      "id": 222
    },
    {
      "type": "Feature",
      "properties": {
        "qc_id": 9,
        "fid": 10,
        "name": "Грибы",
        "original_name": "ЖК Грибоедовский",
        "explainer": "Грибами называют ЖК Грибоедовский — 25-этажные одноподъездные дома. Внешне отчасти похожие на грибы без шляпки.",
        "Тип названия": "Визуальная ассоциация",
        "auxiliary_storage_labeling_positionx": null,
        "auxiliary_storage_labeling_positiony": null,
        "auxiliary_storage_callouts_originx": null,
        "auxiliary_storage_callouts_originy": null,
        "auxiliary_storage_callouts_destinationx": null,
        "auxiliary_storage_callouts_destinationy": null,
        "photos": [
          {
            "src": "/images/descriptions/image_32_2.jpeg",
            "alt": "Грибы"
          }
        ],
        "city": "Пермь"
      },
      "geometry": {
        "type": "MultiPoint",
        "coordinates": [
          [
            56.32318459959667,
            58.00582145286607
          ]
        ]
      },
      "id": 223
    },
    {
      "type": "Feature",
      "properties": {
        "qc_id": 10,
        "fid": 11,
        "name": "Козий загон",
        "original_name": "Сквер им. Решетникова",
        "explainer": "Козьим загоном называют нынешний сквер Решетникова из-за того, что он огорожен забором и имеет небольшую площадь.",
        "Тип названия": "Историческая ассоциация",
        "auxiliary_storage_labeling_positionx": null,
        "auxiliary_storage_labeling_positiony": null,
        "auxiliary_storage_callouts_originx": null,
        "auxiliary_storage_callouts_originy": null,
        "auxiliary_storage_callouts_destinationx": null,
        "auxiliary_storage_callouts_destinationy": null,
        "photos": [
          {
            "src": "/images/descriptions/image_33_1.jpeg",
            "alt": "Козий загон"
          }
        ],
        "city": "Пермь"
      },
      "geometry": {
        "type": "MultiPoint",
        "coordinates": [
          [
            56.24357352484058,
            58.01843119153309
          ]
        ]
      },
      "id": 224
    },
    {
      "type": "Feature",
      "properties": {
        "qc_id": 11,
        "fid": 12,
        "name": "Полстакана",
        "original_name": "Максима Горького, 5",
        "explainer": "Так называют здание на Максима Горького, 5 из-за схожей формы.",
        "Тип названия": "Визуальная ассоциация",
        "auxiliary_storage_labeling_positionx": 455992.4162127306,
        "auxiliary_storage_labeling_positiony": 6431783.25833609,
        "auxiliary_storage_callouts_originx": null,
        "auxiliary_storage_callouts_originy": null,
        "auxiliary_storage_callouts_destinationx": null,
        "auxiliary_storage_callouts_destinationy": null,
        "photos": [
          {
            "src": "/images/descriptions/image_33_2.jpeg",
            "alt": "Полстакана"
          }
        ],
        "city": "Пермь"
      },
      "geometry": {
        "type": "MultiPoint",
        "coordinates": [
          [
            56.24916257542699,
            58.0182111305949
          ]
        ]
      },
      "id": 225
    },
    {
      "type": "Feature",
      "properties": {
        "qc_id": 12,
        "fid": 13,
        "name": "Колизей",
        "original_name": "ТРК \"Колизей Атриум\"",
        "explainer": "Так называется Торговый центр в Перми, но он имеет народное происхождение – на его месте существовал недостроенный зал филармонии еще в советские годы.",
        "Тип названия": "Историческая ассоциация",
        "auxiliary_storage_labeling_positionx": 453269.08022146125,
        "auxiliary_storage_labeling_positiony": 6430830.504879261,
        "auxiliary_storage_callouts_originx": null,
        "auxiliary_storage_callouts_originy": null,
        "auxiliary_storage_callouts_destinationx": null,
        "auxiliary_storage_callouts_destinationy": null,
        "photos": [
          {
            "src": "/images/descriptions/image_34_1.jpeg",
            "alt": "Колизей"
          }
        ],
        "city": "Пермь"
      },
      "geometry": {
        "type": "MultiPoint",
        "coordinates": [
          [
            56.23356253672991,
            58.00948448375542
          ]
        ]
      },
      "id": 226
    },
    {
      "type": "Feature",
      "properties": {
        "qc_id": 13,
        "fid": 14,
        "name": "Башня смерти",
        "original_name": "ГЛАВк МВД по Пермскому краю",
        "explainer": "Башней смерти называют здание ГЛАВка МВД по Пермскому краю. Подобное название обусловлено легендами, так как здание изначально создавалось для МГБ, а затем передано МВД, то формально никогда не было гражданским.",
        "Тип названия": "Визуальная ассоциация",
        "auxiliary_storage_labeling_positionx": 456131.46017089084,
        "auxiliary_storage_labeling_positiony": 6426711.142370799,
        "auxiliary_storage_callouts_originx": null,
        "auxiliary_storage_callouts_originy": null,
        "auxiliary_storage_callouts_destinationx": null,
        "auxiliary_storage_callouts_destinationy": null,
        "photos": [
          {
            "src": "/images/descriptions/image_34_2.jpeg",
            "alt": "Башня смерти"
          }
        ],
        "city": "Пермь"
      },
      "geometry": {
        "type": "MultiPoint",
        "coordinates": [
          [
            56.253606711316365,
            57.99491744762057
          ]
        ]
      },
      "id": 227
    },
    {
      "type": "Feature",
      "properties": {
        "qc_id": 14,
        "fid": 15,
        "name": "Прокол",
        "original_name": "Стахановский мост",
        "explainer": "Проколом некоторые называют Стахановский мост. Возможно, это связано с географическим положением Индустриального района, который отделен от остального города Транссибом, поэтому каждый мост или тоннель – нагруженная улица, на которой постоянный трафик.",
        "Тип названия": "Ассоциация с объектом",
        "auxiliary_storage_labeling_positionx": 454949.08663773513,
        "auxiliary_storage_labeling_positiony": 6426903.45512974,
        "auxiliary_storage_callouts_originx": null,
        "auxiliary_storage_callouts_originy": null,
        "auxiliary_storage_callouts_destinationx": null,
        "auxiliary_storage_callouts_destinationy": null,
        "city": "Пермь"
      },
      "geometry": {
        "type": "MultiPoint",
        "coordinates": [
          [
            56.23073974442214,
            57.98540297606187
          ]
        ]
      },
      "id": 228
    },
    {
      "type": "Feature",
      "properties": {
        "qc_id": 15,
        "fid": 16,
        "name": "Языки",
        "original_name": null,
        "explainer": null,
        "Тип названия": "Другое",
        "auxiliary_storage_labeling_positionx": 453088.30673532607,
        "auxiliary_storage_labeling_positiony": 6423581.561342504,
        "auxiliary_storage_callouts_originx": null,
        "auxiliary_storage_callouts_originy": null,
        "auxiliary_storage_callouts_destinationx": null,
        "auxiliary_storage_callouts_destinationy": null,
        "city": "Пермь"
      },
      "geometry": {
        "type": "MultiPoint",
        "coordinates": [
          [
            56.21905752337453,
            57.96562451670351
          ]
        ]
      },
      "id": 229
    },
    {
      "type": "Feature",
      "properties": {
        "qc_id": 16,
        "fid": 17,
        "name": "Кирпич",
        "original_name": null,
        "explainer": null,
        "Тип названия": "Другое",
        "auxiliary_storage_labeling_positionx": 453798.52764459315,
        "auxiliary_storage_labeling_positiony": 6423281.1457213,
        "auxiliary_storage_callouts_originx": null,
        "auxiliary_storage_callouts_originy": null,
        "auxiliary_storage_callouts_destinationx": null,
        "auxiliary_storage_callouts_destinationy": null,
        "city": "Пермь"
      },
      "geometry": {
        "type": "MultiPoint",
        "coordinates": [
          [
            56.22809355818155,
            57.96393507834839
          ]
        ]
      },
      "id": 230
    },
    {
      "type": "Feature",
      "properties": {
        "qc_id": 17,
        "fid": 18,
        "name": "Плиты",
        "original_name": null,
        "explainer": null,
        "Тип названия": "Ассоциация с объектом",
        "auxiliary_storage_labeling_positionx": 452993.26690367435,
        "auxiliary_storage_labeling_positiony": 6424333.369828118,
        "auxiliary_storage_callouts_originx": null,
        "auxiliary_storage_callouts_originy": null,
        "auxiliary_storage_callouts_destinationx": null,
        "auxiliary_storage_callouts_destinationy": null,
        "city": "Пермь"
      },
      "geometry": {
        "type": "MultiPoint",
        "coordinates": [
          [
            56.21283003993655,
            57.96420045426201
          ]
        ]
      },
      "id": 231
    },
    {
      "type": "Feature",
      "properties": {
        "qc_id": 18,
        "fid": 19,
        "name": "Париж",
        "original_name": "Женское общежитие",
        "explainer": null,
        "Тип названия": "Другое",
        "auxiliary_storage_labeling_positionx": 445315.1851725361,
        "auxiliary_storage_labeling_positiony": 6425416.4170722375,
        "auxiliary_storage_callouts_originx": null,
        "auxiliary_storage_callouts_originy": null,
        "auxiliary_storage_callouts_destinationx": null,
        "auxiliary_storage_callouts_destinationy": null,
        "city": "Пермь"
      },
      "geometry": {
        "type": "MultiPoint",
        "coordinates": [
          [
            56.16996379903169,
            57.97396147903171
          ]
        ]
      },
      "id": 232
    },
    {
      "type": "Feature",
      "properties": {
        "qc_id": 19,
        "fid": 20,
        "name": "Лондон",
        "original_name": "Мужское общежитие",
        "explainer": null,
        "Тип названия": "Другое",
        "auxiliary_storage_labeling_positionx": 444788.8073362613,
        "auxiliary_storage_labeling_positiony": 6425863.995622924,
        "auxiliary_storage_callouts_originx": null,
        "auxiliary_storage_callouts_originy": null,
        "auxiliary_storage_callouts_destinationx": null,
        "auxiliary_storage_callouts_destinationy": null,
        "city": "Пермь"
      },
      "geometry": {
        "type": "MultiPoint",
        "coordinates": [
          [
            56.171826218434404,
            57.974496477819386
          ]
        ]
      },
      "id": 233
    },
    {
      "type": "Feature",
      "properties": {
        "qc_id": 20,
        "fid": 21,
        "name": "Крепар",
        "original_name": null,
        "explainer": "Сейчас небольшой торговый центр на ул Ленина, но раньше сеть магазинов, основанная предпринимателями из Красновишерска (север Пермского края). Они называли себя «Крепкие парни» и создали сеть магазинов по сокращению – «Крепар».",
        "Тип названия": "Историческая ассоциация",
        "auxiliary_storage_labeling_positionx": 453993.90170886304,
        "auxiliary_storage_labeling_positiony": 6431245.98396498,
        "auxiliary_storage_callouts_originx": null,
        "auxiliary_storage_callouts_originy": null,
        "auxiliary_storage_callouts_destinationx": null,
        "auxiliary_storage_callouts_destinationy": null,
        "photos": [
          {
            "src": "/images/descriptions/image_35_1.jpeg",
            "alt": "Крепар",
            "caption": "Крепар"
          }
        ],
        "city": "Пермь"
      },
      "geometry": {
        "type": "MultiPoint",
        "coordinates": [
          [
            56.240888774240865,
            58.011786883274496
          ]
        ]
      },
      "id": 234
    },
    {
      "type": "Feature",
      "properties": {
        "qc_id": 21,
        "fid": 22,
        "name": "Колодец",
        "original_name": "Мира, 11",
        "explainer": "Колодцем называют дом на Мира 11, похожий на колодец.",
        "Тип названия": "Визуальная ассоциация",
        "auxiliary_storage_labeling_positionx": 451974.5827779201,
        "auxiliary_storage_labeling_positiony": 6422721.147294244,
        "auxiliary_storage_callouts_originx": null,
        "auxiliary_storage_callouts_originy": null,
        "auxiliary_storage_callouts_destinationx": null,
        "auxiliary_storage_callouts_destinationy": null,
        "photos": [
          {
            "src": "/images/descriptions/image_36_1.jpeg",
            "alt": "Колодец"
          }
        ],
        "city": "Пермь"
      },
      "geometry": {
        "type": "MultiPoint",
        "coordinates": [
          [
            56.19817195794507,
            57.98088166029041
          ]
        ]
      },
      "id": 235
    },
    {
      "type": "Feature",
      "properties": {
        "qc_id": 22,
        "fid": 23,
        "name": "Большая горка",
        "original_name": null,
        "explainer": null,
        "Тип названия": "Визуальная ассоциация",
        "auxiliary_storage_labeling_positionx": 455586.9971111251,
        "auxiliary_storage_labeling_positiony": 6425636.800193357,
        "auxiliary_storage_callouts_originx": null,
        "auxiliary_storage_callouts_originy": null,
        "auxiliary_storage_callouts_destinationx": null,
        "auxiliary_storage_callouts_destinationy": null,
        "city": "Пермь"
      },
      "geometry": {
        "type": "MultiPoint",
        "coordinates": [
          [
            56.22541798434841,
            57.9832974375232
          ]
        ]
      },
      "id": 236
    },
    {
      "type": "Feature",
      "properties": {
        "qc_id": 23,
        "fid": 24,
        "name": "Маленькая горка",
        "original_name": null,
        "explainer": null,
        "Тип названия": "Визуальная ассоциация",
        "auxiliary_storage_labeling_positionx": null,
        "auxiliary_storage_labeling_positiony": null,
        "auxiliary_storage_callouts_originx": null,
        "auxiliary_storage_callouts_originy": null,
        "auxiliary_storage_callouts_destinationx": null,
        "auxiliary_storage_callouts_destinationy": null,
        "city": "Пермь"
      },
      "geometry": {
        "type": "MultiPoint",
        "coordinates": [
          [
            56.223874059379945,
            57.98238130464295
          ]
        ]
      },
      "id": 237
    },
    {
      "type": "Feature",
      "properties": {
        "qc_id": 24,
        "fid": 25,
        "name": "Буква П",
        "original_name": null,
        "explainer": "Уже бывший арт-объект Пермские ворота, выполненный в форме буквы П из бревен.",
        "Тип названия": "Визуальная ассоциация",
        "auxiliary_storage_labeling_positionx": null,
        "auxiliary_storage_labeling_positiony": null,
        "auxiliary_storage_callouts_originx": null,
        "auxiliary_storage_callouts_originy": null,
        "auxiliary_storage_callouts_destinationx": null,
        "auxiliary_storage_callouts_destinationy": null,
        "photos": [
          {
            "src": "/images/descriptions/image_37_1.jpeg",
            "alt": "Буква П"
          }
        ],
        "city": "Пермь"
      },
      "geometry": {
        "type": "MultiPoint",
        "coordinates": [
          [
            56.193140144908625,
            58.004358485077816
          ]
        ]
      },
      "id": 238
    },
    {
      "type": "Feature",
      "properties": {
        "qc_id": 25,
        "fid": 26,
        "name": "Гипер",
        "original_name": null,
        "explainer": "Гипером называют первый в городе Гипермаркет Виват. Сейчас в этом здании находится Перекресток.",
        "Тип названия": "Историческая ассоциация",
        "auxiliary_storage_labeling_positionx": 453322.1213744838,
        "auxiliary_storage_labeling_positiony": 6428478.427805671,
        "auxiliary_storage_callouts_originx": null,
        "auxiliary_storage_callouts_originy": null,
        "auxiliary_storage_callouts_destinationx": null,
        "auxiliary_storage_callouts_destinationy": null,
        "city": "Пермь"
      },
      "geometry": {
        "type": "MultiPoint",
        "coordinates": [
          [
            56.20924732002717,
            57.993363834904585
          ]
        ]
      },
      "id": 239
    },
    {
      "type": "Feature",
      "properties": {
        "qc_id": 26,
        "fid": 27,
        "name": "ГХ",
        "original_name": "Горный Хрусталь",
        "explainer": "",
        "Тип названия": "Ассоциация с официальным названием",
        "auxiliary_storage_labeling_positionx": null,
        "auxiliary_storage_labeling_positiony": null,
        "auxiliary_storage_callouts_originx": null,
        "auxiliary_storage_callouts_originy": null,
        "auxiliary_storage_callouts_destinationx": null,
        "auxiliary_storage_callouts_destinationy": null,
        "city": "Пермь"
      },
      "geometry": {
        "type": "MultiPoint",
        "coordinates": [
          [
            56.29439052062473,
            58.026691469737976
          ]
        ]
      },
      "id": 240
    },
    {
      "type": "Feature",
      "properties": {
        "qc_id": 27,
        "fid": 28,
        "name": "Византия",
        "original_name": "Ленина 27 В",
        "explainer": null,
        "Тип названия": "Другое",
        "auxiliary_storage_labeling_positionx": 455262.5861351489,
        "auxiliary_storage_labeling_positiony": 6431566.322492344,
        "auxiliary_storage_callouts_originx": null,
        "auxiliary_storage_callouts_originy": null,
        "auxiliary_storage_callouts_destinationx": null,
        "auxiliary_storage_callouts_destinationy": null,
        "city": "Пермь"
      },
      "geometry": {
        "type": "MultiPoint",
        "coordinates": [
          [
            56.24398181588993,
            58.01324147999964
          ]
        ]
      },
      "id": 241
    },
    {
      "type": "Feature",
      "properties": {
        "qc_id": 28,
        "fid": 29,
        "name": "Кулек",
        "original_name": "Инситут культуры",
        "explainer": "Так называют Институт культуры в Перми.",
        "Тип названия": "Ассоциация с официальным названием",
        "auxiliary_storage_labeling_positionx": 454478.17204101477,
        "auxiliary_storage_labeling_positiony": 6431020.3517806735,
        "auxiliary_storage_callouts_originx": null,
        "auxiliary_storage_callouts_originy": null,
        "auxiliary_storage_callouts_destinationx": null,
        "auxiliary_storage_callouts_destinationy": null,
        "city": "Пермь"
      },
      "geometry": {
        "type": "MultiPoint",
        "coordinates": [
          [
            56.24310373909709,
            58.01318993260118
          ]
        ]
      },
      "id": 242
    },
    {
      "type": "Feature",
      "properties": {
        "qc_id": 29,
        "fid": 30,
        "name": "Чертов палец",
        "original_name": "ЖК Доминант",
        "explainer": "ЖК «Доминанта» на Газеты Звезда 46 с большими пирамидами на крыше, в котором когда-то жил губернатор Пермского края Олег Чиркунов.",
        "Тип названия": "Визуальная ассоциация",
        "auxiliary_storage_labeling_positionx": 455601.72011009976,
        "auxiliary_storage_labeling_positiony": 6426788.403727288,
        "auxiliary_storage_callouts_originx": null,
        "auxiliary_storage_callouts_originy": null,
        "auxiliary_storage_callouts_destinationx": null,
        "auxiliary_storage_callouts_destinationy": null,
        "photos": [
          {
            "src": "/images/descriptions/image_38_1.jpeg",
            "alt": "Чертов палец",
            "caption": "Чертов палец"
          },
          {
            "src": "/images/descriptions/image_38_2.jpeg",
            "alt": "Чертов палец"
          }
        ],
        "city": "Пермь"
      },
      "geometry": {
        "type": "MultiPoint",
        "coordinates": [
          [
            56.25193025425941,
            58.002142182303686
          ]
        ]
      },
      "id": 243
    },
    {
      "type": "Feature",
      "properties": {
        "qc_id": 30,
        "fid": 31,
        "name": "Дом-книга",
        "original_name": "Стахановская, 29",
        "explainer": "Так называют ул на Стахановской, 29 из-за своей формы.",
        "Тип названия": "Визуальная ассоциация",
        "auxiliary_storage_labeling_positionx": 453649.586691229,
        "auxiliary_storage_labeling_positiony": 6426077.718236047,
        "auxiliary_storage_callouts_originx": null,
        "auxiliary_storage_callouts_originy": null,
        "auxiliary_storage_callouts_destinationx": null,
        "auxiliary_storage_callouts_destinationy": null,
        "photos": [
          {
            "src": "/images/descriptions/image_39_1.jpeg",
            "alt": "Дом-книга"
          }
        ],
        "city": "Пермь"
      },
      "geometry": {
        "type": "MultiPoint",
        "coordinates": [
          [
            56.211982496981605,
            57.98658038495674
          ]
        ]
      },
      "id": 244
    },
    {
      "type": "Feature",
      "properties": {
        "qc_id": 32,
        "fid": 33,
        "name": "Дом чекистов",
        "original_name": null,
        "explainer": null,
        "Тип названия": "Историческая ассоциация",
        "auxiliary_storage_labeling_positionx": null,
        "auxiliary_storage_labeling_positiony": null,
        "auxiliary_storage_callouts_originx": null,
        "auxiliary_storage_callouts_originy": null,
        "auxiliary_storage_callouts_destinationx": null,
        "auxiliary_storage_callouts_destinationy": null,
        "city": "Пермь"
      },
      "geometry": {
        "type": "MultiPoint",
        "coordinates": [
          [
            56.25315667952689,
            58.007416885693736
          ]
        ]
      },
      "id": 245
    },
    {
      "type": "Feature",
      "properties": {
        "qc_id": 33,
        "fid": 34,
        "name": "Пентагон",
        "original_name": null,
        "explainer": "Комплекс зданий в Кислотных дачах, напоминающих сверху Пентагон.",
        "Тип названия": "Визуальная ассоциация",
        "auxiliary_storage_labeling_positionx": null,
        "auxiliary_storage_labeling_positiony": null,
        "auxiliary_storage_callouts_originx": null,
        "auxiliary_storage_callouts_originy": null,
        "auxiliary_storage_callouts_destinationx": null,
        "auxiliary_storage_callouts_destinationy": null,
        "photos": [
          {
            "src": "/images/descriptions/image_40_2.jpeg",
            "alt": "Пентагон"
          }
        ],
        "city": "Пермь"
      },
      "geometry": {
        "type": "MultiPoint",
        "coordinates": [
          [
            56.40276165753679,
            58.087238573904266
          ]
        ]
      },
      "id": 246
    },
    {
      "type": "Feature",
      "properties": {
        "qc_id": 34,
        "fid": 35,
        "name": "Табуретка",
        "original_name": null,
        "explainer": "Так иногда называют здание Пермэнерго на Комсомольском проспекте из-за формы башни.",
        "Тип названия": "Визуальная ассоциация",
        "auxiliary_storage_labeling_positionx": 456461.2051983424,
        "auxiliary_storage_labeling_positiony": 6428733.802454572,
        "auxiliary_storage_callouts_originx": null,
        "auxiliary_storage_callouts_originy": null,
        "auxiliary_storage_callouts_destinationx": null,
        "auxiliary_storage_callouts_destinationy": null,
        "photos": [
          {
            "src": "/images/descriptions/image_39_2.jpeg",
            "alt": "Табуретка",
            "caption": "Табуретка"
          }
        ],
        "city": "Пермь"
      },
      "geometry": {
        "type": "MultiPoint",
        "coordinates": [
          [
            56.24812786021078,
            58.00255586199312
          ]
        ]
      },
      "id": 247
    },
    {
      "type": "Feature",
      "properties": {
        "qc_id": 35,
        "fid": 36,
        "name": "Хабиба",
        "original_name": null,
        "explainer": null,
        "Тип названия": "Другое",
        "auxiliary_storage_labeling_positionx": null,
        "auxiliary_storage_labeling_positiony": null,
        "auxiliary_storage_callouts_originx": null,
        "auxiliary_storage_callouts_originy": null,
        "auxiliary_storage_callouts_destinationx": null,
        "auxiliary_storage_callouts_destinationy": null,
        "city": "Пермь"
      },
      "geometry": {
        "type": "MultiPoint",
        "coordinates": [
          [
            56.369511467349945,
            58.113875506043506
          ]
        ]
      },
      "id": 248
    },
    {
      "type": "Feature",
      "properties": {
        "qc_id": 36,
        "fid": 37,
        "name": "Путинка",
        "original_name": null,
        "explainer": "Так называют долгострой ЖК Столичный, дольщики которого просили его достроить губернатора, министров и президента",
        "Тип названия": "Историческая ассоциация",
        "auxiliary_storage_labeling_positionx": 444655.1409909889,
        "auxiliary_storage_labeling_positiony": 6427121.700817627,
        "auxiliary_storage_callouts_originx": null,
        "auxiliary_storage_callouts_originy": null,
        "auxiliary_storage_callouts_destinationx": null,
        "auxiliary_storage_callouts_destinationy": null,
        "photos": [
          {
            "src": "/images/descriptions/image_40_1.jpeg",
            "alt": "Путинка"
          }
        ],
        "city": "Пермь"
      },
      "geometry": {
        "type": "MultiPoint",
        "coordinates": [
          [
            56.18846692758519,
            57.97575204246967
          ]
        ]
      },
      "id": 249
    },
    {
      "type": "Feature",
      "properties": {
        "qc_id": 37,
        "fid": 38,
        "name": "Стахановский замок",
        "original_name": null,
        "explainer": null,
        "Тип названия": "Визуальная ассоциация",
        "auxiliary_storage_labeling_positionx": 446240.9804574115,
        "auxiliary_storage_labeling_positiony": 6427296.812361879,
        "auxiliary_storage_callouts_originx": null,
        "auxiliary_storage_callouts_originy": null,
        "auxiliary_storage_callouts_destinationx": null,
        "auxiliary_storage_callouts_destinationy": null,
        "city": "Пермь"
      },
      "geometry": {
        "type": "MultiPoint",
        "coordinates": [
          [
            56.21831311968205,
            57.987493825051345
          ]
        ]
      },
      "id": 250
    },
    {
      "type": "Feature",
      "properties": {
        "qc_id": 38,
        "fid": 39,
        "name": "Око Саурона",
        "original_name": null,
        "explainer": null,
        "Тип названия": "Визуальная ассоциация",
        "auxiliary_storage_labeling_positionx": 454398.9697705614,
        "auxiliary_storage_labeling_positiony": 6427752.353700863,
        "auxiliary_storage_callouts_originx": null,
        "auxiliary_storage_callouts_originy": null,
        "auxiliary_storage_callouts_destinationx": null,
        "auxiliary_storage_callouts_destinationy": null,
        "city": "Пермь"
      },
      "geometry": {
        "type": "MultiPoint",
        "coordinates": [
          [
            56.21853972613192,
            57.988030377576614
          ]
        ]
      },
      "id": 251
    },
    {
      "type": "Feature",
      "properties": {
        "qc_id": 39,
        "fid": 40,
        "name": "НИИБУТ",
        "original_name": null,
        "explainer": null,
        "Тип названия": "Ассоциация с официальным названием",
        "auxiliary_storage_labeling_positionx": 444847.3256713633,
        "auxiliary_storage_labeling_positiony": 6427900.067271136,
        "auxiliary_storage_callouts_originx": null,
        "auxiliary_storage_callouts_originy": null,
        "auxiliary_storage_callouts_destinationx": null,
        "auxiliary_storage_callouts_destinationy": null,
        "city": "Пермь"
      },
      "geometry": {
        "type": "MultiPoint",
        "coordinates": [
          [
            56.215646430950585,
            57.98825122499249
          ]
        ]
      },
      "id": 252
    },
    {
      "type": "Feature",
      "properties": {
        "qc_id": 40,
        "fid": 41,
        "name": "Репка",
        "original_name": null,
        "explainer": null,
        "Тип названия": "Ассоциация с объектом",
        "auxiliary_storage_labeling_positionx": 445775.469944567,
        "auxiliary_storage_labeling_positiony": 6428418.773147967,
        "auxiliary_storage_callouts_originx": 453089.0660516141,
        "auxiliary_storage_callouts_originy": 6427946.988632759,
        "auxiliary_storage_callouts_destinationx": 446270.3730695669,
        "auxiliary_storage_callouts_destinationy": 6428556.88564797,
        "city": "Пермь"
      },
      "geometry": {
        "type": "MultiPoint",
        "coordinates": [
          [
            56.20694839524366,
            57.99088033769707
          ]
        ]
      },
      "id": 253
    },
    {
      "type": "Feature",
      "properties": {
        "qc_id": 41,
        "fid": 42,
        "name": "Первый номер",
        "original_name": "СИЗО-1",
        "explainer": null,
        "Тип названия": "Ассоциация с официальным названием",
        "auxiliary_storage_labeling_positionx": null,
        "auxiliary_storage_labeling_positiony": null,
        "auxiliary_storage_callouts_originx": null,
        "auxiliary_storage_callouts_originy": null,
        "auxiliary_storage_callouts_destinationx": null,
        "auxiliary_storage_callouts_destinationy": null,
        "city": "Пермь"
      },
      "geometry": {
        "type": "MultiPoint",
        "coordinates": [
          [
            56.26329936416253,
            58.01383310124322
          ]
        ]
      },
      "id": 254
    },
    {
      "type": "Feature",
      "properties": {
        "qc_id": 42,
        "fid": 43,
        "name": "Танк",
        "original_name": null,
        "explainer": null,
        "Тип названия": "Визуальная ассоциация",
        "auxiliary_storage_labeling_positionx": null,
        "auxiliary_storage_labeling_positiony": null,
        "auxiliary_storage_callouts_originx": null,
        "auxiliary_storage_callouts_originy": null,
        "auxiliary_storage_callouts_destinationx": null,
        "auxiliary_storage_callouts_destinationy": null,
        "city": "Пермь"
      },
      "geometry": {
        "type": "MultiPoint",
        "coordinates": [
          [
            56.257637957259846,
            58.00246067302136
          ]
        ]
      },
      "id": 255
    },
    {
      "type": "Feature",
      "properties": {
        "qc_id": 43,
        "fid": 44,
        "name": "Дом с улыбкой",
        "original_name": null,
        "explainer": null,
        "Тип названия": "Визуальная ассоциация",
        "auxiliary_storage_labeling_positionx": null,
        "auxiliary_storage_labeling_positiony": null,
        "auxiliary_storage_callouts_originx": null,
        "auxiliary_storage_callouts_originy": null,
        "auxiliary_storage_callouts_destinationx": null,
        "auxiliary_storage_callouts_destinationy": null,
        "city": "Пермь"
      },
      "geometry": {
        "type": "MultiPoint",
        "coordinates": [
          [
            56.27740520082289,
            58.00650327453499
          ]
        ]
      },
      "id": 256
    },
    {
      "type": "Feature",
      "properties": {
        "qc_id": 44,
        "fid": 45,
        "name": "Дуб Лапшина",
        "original_name": null,
        "explainer": null,
        "Тип названия": "Историческая ассоциация",
        "auxiliary_storage_labeling_positionx": 456471.1693701206,
        "auxiliary_storage_labeling_positiony": 6429696.36922051,
        "auxiliary_storage_callouts_originx": null,
        "auxiliary_storage_callouts_originy": null,
        "auxiliary_storage_callouts_destinationx": null,
        "auxiliary_storage_callouts_destinationy": null,
        "city": "Пермь"
      },
      "geometry": {
        "type": "MultiPoint",
        "coordinates": [
          [
            56.27562043216083,
            58.00568775703041
          ]
        ]
      },
      "id": 257
    },
    {
      "type": "Feature",
      "properties": {
        "qc_id": 45,
        "fid": 46,
        "name": "Семья",
        "original_name": null,
        "explainer": null,
        "Тип названия": "Ассоциация с объектом",
        "auxiliary_storage_labeling_positionx": 457170.9057743832,
        "auxiliary_storage_labeling_positiony": 6427401.534704644,
        "auxiliary_storage_callouts_originx": null,
        "auxiliary_storage_callouts_originy": null,
        "auxiliary_storage_callouts_destinationx": null,
        "auxiliary_storage_callouts_destinationy": null,
        "city": "Пермь"
      },
      "geometry": {
        "type": "MultiPoint",
        "coordinates": [
          [
            56.26067373187067,
            58.007359596409835
          ]
        ]
      },
      "id": 258
    },
    {
      "type": "Feature",
      "properties": {
        "qc_id": 46,
        "fid": 47,
        "name": "Квартира Коляна/Дом Грузчика",
        "original_name": null,
        "explainer": null,
        "Тип названия": "Историческая ассоциация",
        "auxiliary_storage_labeling_positionx": 452795.16261450923,
        "auxiliary_storage_labeling_positiony": 6429790.059449477,
        "auxiliary_storage_callouts_originx": null,
        "auxiliary_storage_callouts_originy": null,
        "auxiliary_storage_callouts_destinationx": null,
        "auxiliary_storage_callouts_destinationy": null,
        "city": "Пермь"
      },
      "geometry": {
        "type": "MultiPoint",
        "coordinates": [
          [
            56.19885031767505,
            58.00886049400543
          ]
        ]
      },
      "id": 259
    },
    {
      "type": "Feature",
      "properties": {
        "qc_id": 47,
        "fid": 48,
        "name": "Зона Б",
        "original_name": null,
        "explainer": "Постройка немецких военнопленных",
        "Тип названия": "Историческая ассоциация",
        "auxiliary_storage_labeling_positionx": null,
        "auxiliary_storage_labeling_positiony": null,
        "auxiliary_storage_callouts_originx": null,
        "auxiliary_storage_callouts_originy": null,
        "auxiliary_storage_callouts_destinationx": null,
        "auxiliary_storage_callouts_destinationy": null,
        "city": "Пермь"
      },
      "geometry": {
        "type": "MultiPoint",
        "coordinates": [
          [
            56.24764219426576,
            57.99217470431783
          ]
        ]
      },
      "id": 260
    },
    {
      "type": "Feature",
      "properties": {
        "qc_id": 48,
        "fid": 49,
        "name": "Фабрика \"Астра\"",
        "original_name": null,
        "explainer": null,
        "Тип названия": "Историческая ассоциация",
        "auxiliary_storage_labeling_positionx": 453091.69324083824,
        "auxiliary_storage_labeling_positiony": 6431606.422179585,
        "auxiliary_storage_callouts_originx": null,
        "auxiliary_storage_callouts_originy": null,
        "auxiliary_storage_callouts_destinationx": null,
        "auxiliary_storage_callouts_destinationy": null,
        "city": "Пермь"
      },
      "geometry": {
        "type": "MultiPoint",
        "coordinates": [
          [
            56.23320304338592,
            58.01348739629942
          ]
        ]
      },
      "id": 261
    },
    {
      "type": "Feature",
      "properties": {
        "qc_id": 49,
        "fid": 50,
        "name": "Добро пожаловать в Пензу",
        "original_name": null,
        "explainer": "Одноименный арт-объект, «встречающий» гостей города, который прилетают в Пермь. Арт-объект играет на том, что многие путают эти два города.",
        "Тип названия": "Реальное название",
        "auxiliary_storage_labeling_positionx": 447126.51757164317,
        "auxiliary_storage_labeling_positiony": 6423873.605871125,
        "auxiliary_storage_callouts_originx": null,
        "auxiliary_storage_callouts_originy": null,
        "auxiliary_storage_callouts_destinationx": null,
        "auxiliary_storage_callouts_destinationy": null,
        "photos": [
          {
            "src": "/images/descriptions/image_41_1.jpeg",
            "alt": "Добро пожаловать в Пензу"
          }
        ],
        "city": "Пермь"
      },
      "geometry": {
        "type": "MultiPoint",
        "coordinates": [
          [
            56.124440093811714,
            57.957649554455465
          ]
        ]
      },
      "id": 262
    },
    {
      "type": "Feature",
      "properties": {
        "qc_id": 50,
        "fid": 51,
        "name": "Власть",
        "original_name": null,
        "explainer": "Арт-объект Власть около Законодательного собрания и правительства края. Арт- объект представляет из себя лавочки в форме слова власть. Любой желающий может на них сесть.",
        "Тип названия": "Реальное название",
        "auxiliary_storage_labeling_positionx": 454651.6327675453,
        "auxiliary_storage_labeling_positiony": 6432304.912261322,
        "auxiliary_storage_callouts_originx": null,
        "auxiliary_storage_callouts_originy": null,
        "auxiliary_storage_callouts_destinationx": null,
        "auxiliary_storage_callouts_destinationy": null,
        "photos": [
          {
            "src": "/images/descriptions/image_42_1.jpeg",
            "alt": "Власть"
          }
        ],
        "city": "Пермь"
      },
      "geometry": {
        "type": "MultiPoint",
        "coordinates": [
          [
            56.23163386765111,
            58.01060700484622
          ]
        ]
      },
      "id": 263
    },
    {
      "type": "Feature",
      "id": 1780303311796,
      "properties": {
        "name": "дом конченного гандона",
        "explainer": "тут жил и вырос конченый гандон",
        "city": "Пермь",
        "Тип названия": "Ассоциация с объектом",
        "original_name": "гандоний дом"
      },
      "geometry": {
        "type": "Point",
        "coordinates": [
          56.273002624511726,
          58.001173851973334
        ]
      }
    }
  ]
}