{
  "type": "FeatureCollection",
  "name": "lines",
  "crs": {
    "type": "name",
    "properties": {
      "name": "urn:ogc:def:crs:OGC:1.3:CRS84"
    }
  },
  "xy_coordinate_resolution": 1e-15,
  "features": [
    {
      "type": "Feature",
      "properties": {
        "qc_id": 0,
        "fid": 1,
        "name": "Бугага",
        "original_name": "ул. Бульвар Гагарина",
        "explainer": "Сокращение от Бульвар Гагарина. Прижилось в использовании из-за забавного звучания.",
        "Тип названия": "Ассоциация с официальным названием",
        "auxiliary_storage_labeling_labelrotation": null,
        "auxiliary_storage_labeling_positionx": null,
        "auxiliary_storage_labeling_positiony": null,
        "auxiliary_storage_labeling_lineanchorpercent": 0.6338627107897511,
        "auxiliary_storage_labeling_lineanchorclipping": "entire",
        "auxiliary_storage_labeling_lineanchortype": "strict",
        "auxiliary_storage_labeling_lineanchortextpoint": "start",
        "auxiliary_storage_labeling_show": null,
        "city": "Пермь"
      },
      "geometry": {
        "type": "MultiLineString",
        "coordinates": [
          [
            [
              56.280953360374774,
              58.014048092279346
            ],
            [
              56.27982884395294,
              58.01167236701466
            ],
            [
              56.285007424827945,
              58.005864183684665
            ],
            [
              56.286364422136245,
              58.004084846376855
            ],
            [
              56.28682570503449,
              58.00095033397625
            ],
            [
              56.287875800605974,
              57.99452317361894
            ],
            [
              56.29720801692714,
              57.990233421959644
            ]
          ]
        ]
      },
      "id": 209
    },
    {
      "type": "Feature",
      "properties": {
        "qc_id": 1,
        "fid": 2,
        "name": "Восточка",
        "original_name": "Восточный обход",
        "explainer": "Восточкой называют Восточный обход — часть круговой дороги вокруг Перми.",
        "Тип названия": "Ассоциация с официальным названием",
        "auxiliary_storage_labeling_labelrotation": null,
        "auxiliary_storage_labeling_positionx": null,
        "auxiliary_storage_labeling_positiony": null,
        "auxiliary_storage_labeling_lineanchorpercent": null,
        "auxiliary_storage_labeling_lineanchorclipping": null,
        "auxiliary_storage_labeling_lineanchortype": null,
        "auxiliary_storage_labeling_lineanchortextpoint": null,
        "auxiliary_storage_labeling_show": null,
        "city": "Пермь"
      },
      "geometry": {
        "type": "MultiLineString",
        "coordinates": [
          [
            [
              56.4208255789268,
              58.135020726359215
            ],
            [
              56.421510261967875,
              58.129835212125194
            ],
            [
              56.4236025001897,
              58.12423249900603
            ],
            [
              56.42592652099321,
              58.11661887379031
            ],
            [
              56.426355926854704,
              58.108573126665114
            ],
            [
              56.424964711349105,
              58.101789857104016
            ],
            [
              56.42536774585508,
              58.09538528341574
            ],
            [
              56.42827146997559,
              58.088886054399566
            ],
            [
              56.43006542573863,
              58.082964197310396
            ],
            [
              56.43180258890852,
              58.07428888950564
            ],
            [
              56.429723262840064,
              58.0668142707006
            ],
            [
              56.4273840354096,
              58.06315052790305
            ],
            [
              56.42737818463967,
              58.05727352987374
            ],
            [
              56.429937142465306,
              58.04711942463775
            ],
            [
              56.430809999004865,
              58.042464097915015
            ],
            [
              56.434228380887085,
              58.03464334657546
            ],
            [
              56.43043663704852,
              58.02827293138685
            ],
            [
              56.42717890223527,
              58.02603458473664
            ],
            [
              56.418581346824894,
              58.02080689815569
            ],
            [
              56.4137477729905,
              58.01739617943607
            ],
            [
              56.40780817818433,
              58.01456253929269
            ],
            [
              56.39821876409068,
              58.00932883320606
            ],
            [
              56.39174258973481,
              58.00299743818913
            ],
            [
              56.384657736040644,
              57.997404008054495
            ],
            [
              56.381149468918345,
              57.992674761954376
            ],
            [
              56.38335046408307,
              57.98643776585093
            ],
            [
              56.392508222225615,
              57.98134601753978
            ],
            [
              56.39875576108371,
              57.977298820583016
            ],
            [
              56.4021192941454,
              57.97281422209859
            ],
            [
              56.402182756830236,
              57.96900236981125
            ],
            [
              56.394823109820976,
              57.95636626363885
            ],
            [
              56.39023014697247,
              57.95115554152734
            ],
            [
              56.38167404735974,
              57.944866495031114
            ],
            [
              56.37120918713564,
              57.93973226259134
            ],
            [
              56.36121489746483,
              57.93629382554312
            ],
            [
              56.35259878928576,
              57.93381466941463
            ],
            [
              56.338308959408785,
              57.93141140753651
            ],
            [
              56.329168392218094,
              57.930516337062386
            ],
            [
              56.318426926972926,
              57.93008855783642
            ],
            [
              56.30178936014613,
              57.930898351682735
            ],
            [
              56.26780887423461,
              57.93282503613494
            ]
          ]
        ]
      },
      "id": 210
    },
    {
      "type": "Feature",
      "properties": {
        "qc_id": 3,
        "fid": 4,
        "name": "Пьяная дорога",
        "original_name": "ул. Встречная, ул. Оверятская",
        "explainer": "Пьяной дорогой в Перми названа улица Встречная, переходящая в Оверятскую. Эта дорога, которая раньше была с плохим асфальтовым покрытием и где никогда не было ДПС. Собственно, многие водители в 90-ые и 00-ые могли заехать сразу в микрорайон Парковый (известный как Шпальный), вместо того, чтобы ехать по центральной улице Западной части города — Шоссе Космонавтов. Название используется повсеместно. Редко можно встретить реальное название улицы – Встречная.",
        "Тип названия": "Историческая ассоциация",
        "auxiliary_storage_labeling_labelrotation": null,
        "auxiliary_storage_labeling_positionx": null,
        "auxiliary_storage_labeling_positiony": null,
        "auxiliary_storage_labeling_lineanchorpercent": null,
        "auxiliary_storage_labeling_lineanchorclipping": null,
        "auxiliary_storage_labeling_lineanchortype": null,
        "auxiliary_storage_labeling_lineanchortextpoint": null,
        "auxiliary_storage_labeling_show": null,
        "photos": [
          {
            "src": "/images/descriptions/image_27_1.jpeg",
            "alt": "Пьяная дорога"
          }
        ],
        "city": "Пермь"
      },
      "geometry": {
        "type": "MultiLineString",
        "coordinates": [
          [
            [
              56.13365519086779,
              57.96071403299345
            ],
            [
              56.13016603539958,
              57.962874318896446
            ],
            [
              56.12824585637279,
              57.96399955216603
            ],
            [
              56.12783053516695,
              57.965717514577086
            ],
            [
              56.12777042935321,
              57.96819242087228
            ],
            [
              56.128062233367174,
              57.972589102564
            ],
            [
              56.12942158323514,
              57.97611945121475
            ],
            [
              56.1314879398306,
              57.981335706091514
            ],
            [
              56.133505692350475,
              57.98652511575227
            ],
            [
              56.13599907199884,
              57.99061905209197
            ],
            [
              56.1366471087887,
              57.99165593226229
            ],
            [
              56.13679927442141,
              57.99258355001353
            ]
          ]
        ]
      },
      "id": 211
    },
    {
      "type": "Feature",
      "properties": {
        "qc_id": 4,
        "fid": 5,
        "name": "Дорога дружбы",
        "original_name": null,
        "explainer": "Это название дорога получила в советское время, за счет соединения Камской долины и Гайвы. Интересно, что это городская дорога, которая не является улицей и у неё нет статуса шоссе и магистрали.",
        "Тип названия": "Реальное название",
        "auxiliary_storage_labeling_labelrotation": null,
        "auxiliary_storage_labeling_positionx": null,
        "auxiliary_storage_labeling_positiony": null,
        "auxiliary_storage_labeling_lineanchorpercent": null,
        "auxiliary_storage_labeling_lineanchorclipping": null,
        "auxiliary_storage_labeling_lineanchortype": null,
        "auxiliary_storage_labeling_lineanchortextpoint": null,
        "auxiliary_storage_labeling_show": null,
        "city": "Пермь"
      },
      "geometry": {
        "type": "MultiLineString",
        "coordinates": [
          [
            [
              56.18663882945407,
              58.04253503130942
            ],
            [
              56.21098559663174,
              58.047771114398174
            ],
            [
              56.21503663652552,
              58.048603587557096
            ],
            [
              56.215801447234,
              58.04788028073288
            ],
            [
              56.21494142558971,
              58.04611450013649
            ],
            [
              56.21501456021405,
              58.04505601429122
            ],
            [
              56.216313914032625,
              58.04499783368954
            ],
            [
              56.22497705067547,
              58.048412972380206
            ],
            [
              56.24779679043911,
              58.05666386712331
            ],
            [
              56.26750312369545,
              58.06378088617524
            ],
            [
              56.29130907608856,
              58.07241342232193
            ],
            [
              56.30520286797572,
              58.07736099131546
            ],
            [
              56.30773317613375,
              58.07830132024551
            ],
            [
              56.31009413840121,
              58.085435367522294
            ],
            [
              56.31187985793353,
              58.089389498274386
            ]
          ]
        ]
      },
      "id": 212
    },
    {
      "type": "Feature",
      "properties": {
        "qc_id": 2,
        "fid": 3,
        "name": "Дружба с Пушкиным",
        "original_name": "Экотропа \"К Егошихе\"",
        "explainer": "Созданная пермским музеем современного искусства PERMM экологическая тропа «К Егошихе», в создании которой принимали участие местные активисты. Тропа носит такое название потому что соединяет площадь дружбы и ул. Пушкина через лог реки Егошиха.",
        "Тип названия": "Ассоциация с объектом",
        "auxiliary_storage_labeling_labelrotation": 215.74812969308272,
        "auxiliary_storage_labeling_positionx": 464292.4095042996,
        "auxiliary_storage_labeling_positiony": 6430448.99237647,
        "auxiliary_storage_labeling_lineanchorpercent": null,
        "auxiliary_storage_labeling_lineanchorclipping": null,
        "auxiliary_storage_labeling_lineanchortype": null,
        "auxiliary_storage_labeling_lineanchortextpoint": null,
        "auxiliary_storage_labeling_show": 0,
        "city": "Пермь"
      },
      "geometry": {
        "type": "MultiLineString",
        "coordinates": [
          [
            [
              56.2784610827716,
              58.01287164109998
            ],
            [
              56.2777850329517,
              58.01300348278951
            ],
            [
              56.27756319359938,
              58.01287316603703
            ],
            [
              56.277157756479504,
              58.012880791578716
            ],
            [
              56.27658142775497,
              58.0127054400754
            ],
            [
              56.27632728738115,
              58.0126311934924
            ],
            [
              56.2757390506207,
              58.012737050206084
            ],
            [
              56.27468874085416,
              58.01274167419633
            ],
            [
              56.27416966195857,
              58.01266503086571
            ],
            [
              56.27405982299413,
              58.01237580812497
            ],
            [
              56.27295303069753,
              58.011614227649346
            ],
            [
              56.27266869168092,
              58.01137312944444
            ],
            [
              56.271953857736634,
              58.01125237568221
            ],
            [
              56.26926400993261,
              58.01153783740024
            ],
            [
              56.267823956732656,
              58.011805876965
            ],
            [
              56.267494884731796,
              58.01149082552419
            ],
            [
              56.2670120491753,
              58.01134067723505
            ],
            [
              56.26608863914382,
              58.011237110105405
            ],
            [
              56.264661023882,
              58.011462203183385
            ]
          ],
          [
            [
              56.27416966195857,
              58.01266503086571
            ],
            [
              56.27387674572572,
              58.0127926225781
            ],
            [
              56.27375879568008,
              58.013074884002116
            ],
            [
              56.273506533211574,
              58.01352349201824
            ],
            [
              56.27311522464091,
              58.01406396237614
            ],
            [
              56.2723341399134,
              58.01445329090974
            ],
            [
              56.27166434853573,
              58.014427950244354
            ],
            [
              56.27096657973344,
              58.01470523525596
            ],
            [
              56.270567133520196,
              58.015336653535414
            ],
            [
              56.27037808755498,
              58.015587067219556
            ],
            [
              56.27047060063638,
              58.01563723511438
            ],
            [
              56.27061572709235,
              58.01585978149136
            ],
            [
              56.270808000157025,
              58.01591052076754
            ],
            [
              56.27096254955859,
              58.01612981153796
            ],
            [
              56.27113772333428,
              58.01625490876844
            ],
            [
              56.27124531166723,
              58.01648385776895
            ],
            [
              56.271107154189,
              58.01668492624679
            ],
            [
              56.270746820177116,
              58.01677220995176
            ],
            [
              56.2702777553564,
              58.01668679231266
            ],
            [
              56.269748162062136,
              58.01681777655818
            ],
            [
              56.26970417936314,
              58.016834070081124
            ],
            [
              56.26981408565269,
              58.01694886711172
            ],
            [
              56.269261382191,
              58.01714259106689
            ],
            [
              56.26906809265491,
              58.01714148124699
            ],
            [
              56.26906546729176,
              58.01696442537917
            ],
            [
              56.26898827062396,
              58.016927581139036
            ],
            [
              56.26823172854977,
              58.01702581834454
            ],
            [
              56.267418349198174,
              58.017006248269425
            ],
            [
              56.26694064720814,
              58.01688602227497
            ],
            [
              56.26666521613536,
              58.01678516046387
            ],
            [
              56.26650337487309,
              58.01677099122637
            ]
          ]
        ]
      },
      "id": 213
    }
  ]
}